start=new Date('2022-09-26T00:00:00.000Z').valueOf();
sats=[{"ARG_OF_PERICENTER":"5.3436","LAUNCH_DATE":"2022-08-19","OBJECT_ID":"2022-101AM","NORAD_CAT_ID":"53562","FILE":"3583828","PERIAPSIS":"347.102","REF_FRAME":"TEME","EPHEMERIS_TYPE":"0","RCS_SIZE":"LARGE","MEAN_MOTION_DOT":"-0.00062415","INCLINATION":"53.2167","TIME_SYSTEM":"UTC","PERIOD":"91.532","CENTER_NAME":"EARTH","SITE":"AFETR","OBJECT_NAME":"STARLINK-4565","REV_AT_EPOCH":"130","OBJECT_TYPE":"PAYLOAD","MEAN_ANOMALY":"282.1008","GP_ID":"213509933","TLE_LINE2":"2 53562  53.2167 330.9848 0003882   5.3436 282.1008 15.73216370  1304","MEAN_MOTION_DDOT":"0.0000000000000","RA_OF_ASC_NODE":"330.9848","CLASSIFICATION_TYPE":"U","SEMIMAJOR_AXIS":"6727.849","TLE_LINE1":"1 53562U 22101AM  22268.91668981 -.00062415  00000-0 -44304-3 0  9993","BSTAR":"-0.00044304000000","APOAPSIS":"352.325","DECAY_DATE":null,"COUNTRY_CODE":"US","ELEMENT_SET_NO":"999","ECCENTRICITY":"0.00038820","EPOCH":"2022-09-25T22:00:01.999584","MEAN_MOTION":"15.73216370","MEAN_ELEMENT_THEORY":"SGP4"},{"MEAN_MOTION_DDOT":"0.0000000000000","GP_ID":"213509382","TLE_LINE2":"2 53563  53.2168 330.9896 0003875   2.9583 282.7505 15.73175427  1302","OBJECT_TYPE":"PAYLOAD","MEAN_ANOMALY":"282.7505","REV_AT_EPOCH":"130","OBJECT_NAME":"STARLINK-4561","MEAN_ELEMENT_THEORY":"SGP4","EPOCH":"2022-09-25T22:00:01.999584","ECCENTRICITY":"0.00038750","MEAN_MOTION":"15.73175427","ELEMENT_SET_NO":"999","DECAY_DATE":null,"COUNTRY_CODE":"US","SEMIMAJOR_AXIS":"6727.965","TLE_LINE1":"1 53563U 22101AN  22268.91668981 -.00029741  00000-0 -20833-3 0  9990","BSTAR":"-0.00020833000000","APOAPSIS":"352.437","CLASSIFICATION_TYPE":"U","RA_OF_ASC_NODE":"330.9896","EPHEMERIS_TYPE":"0","PERIAPSIS":"347.223","REF_FRAME":"TEME","FILE":"3583828","NORAD_CAT_ID":"53563","ARG_OF_PERICENTER":"2.9583","OBJECT_ID":"2022-101AN","LAUNCH_DATE":"2022-08-19","SITE":"AFETR","CENTER_NAME":"EARTH","PERIOD":"91.535","TIME_SYSTEM":"UTC","INCLINATION":"53.2168","MEAN_MOTION_DOT":"-0.00029741","RCS_SIZE":"LARGE"},{"RCS_SIZE":"LARGE","MEAN_MOTION_DOT":"-0.00038330","INCLINATION":"53.2166","TIME_SYSTEM":"UTC","PERIOD":"91.533","CENTER_NAME":"EARTH","SITE":"AFETR","OBJECT_ID":"2022-101AP","LAUNCH_DATE":"2022-08-19","ARG_OF_PERICENTER":"5.1977","FILE":"3583828","NORAD_CAT_ID":"53564","REF_FRAME":"TEME","PERIAPSIS":"347.222","EPHEMERIS_TYPE":"0","RA_OF_ASC_NODE":"330.9811","CLASSIFICATION_TYPE":"U","APOAPSIS":"352.293","TLE_LINE1":"1 53564U 22101AP  22268.91668981 -.00038330  00000-0 -26977-3 0  9990","BSTAR":"-0.00026977000000","SEMIMAJOR_AXIS":"6727.893","COUNTRY_CODE":"US","DECAY_DATE":null,"ELEMENT_SET_NO":"999","MEAN_MOTION":"15.73200935","ECCENTRICITY":"0.00037690","EPOCH":"2022-09-25T22:00:01.999584","MEAN_ELEMENT_THEORY":"SGP4","OBJECT_NAME":"STARLINK-4577","REV_AT_EPOCH":"130","MEAN_ANOMALY":"283.4333","OBJECT_TYPE":"PAYLOAD","GP_ID":"213510094","TLE_LINE2":"2 53564  53.2166 330.9811 0003769   5.1977 283.4333 15.73200935  1302","MEAN_MOTION_DDOT":"0.0000000000000"},{"REF_FRAME":"TEME","PERIAPSIS":"347.224","EPHEMERIS_TYPE":"0","ARG_OF_PERICENTER":"7.2239","OBJECT_ID":"2022-101AQ","LAUNCH_DATE":"2022-08-19","FILE":"3583828","NORAD_CAT_ID":"53565","PERIOD":"91.532","CENTER_NAME":"EARTH","SITE":"AFETR","RCS_SIZE":"LARGE","MEAN_MOTION_DOT":"-0.00064678","INCLINATION":"53.2169","TIME_SYSTEM":"UTC","GP_ID":"213509127","TLE_LINE2":"2 53565  53.2169 330.9855 0003706   7.2239 279.5876 15.73215131  1301","MEAN_MOTION_DDOT":"0.0000000000000","REV_AT_EPOCH":"130","OBJECT_NAME":"STARLINK-4575","OBJECT_TYPE":"PAYLOAD","MEAN_ANOMALY":"279.5876","ELEMENT_SET_NO":"999","EPOCH":"2022-09-25T22:00:01.999584","ECCENTRICITY":"0.00037060","MEAN_MOTION":"15.73215131","MEAN_ELEMENT_THEORY":"SGP4","RA_OF_ASC_NODE":"330.9855","CLASSIFICATION_TYPE":"U","SEMIMAJOR_AXIS":"6727.852","TLE_LINE1":"1 53565U 22101AQ  22268.91668981 -.00064678  00000-0 -45943-3 0  9999","BSTAR":"-0.00045943000000","APOAPSIS":"352.210","COUNTRY_CODE":"US","DECAY_DATE":null},{"PERIOD":"91.533","CENTER_NAME":"EARTH","SITE":"AFETR","RCS_SIZE":"LARGE","MEAN_MOTION_DOT":"-0.00063477","INCLINATION":"53.2167","TIME_SYSTEM":"UTC","PERIAPSIS":"347.208","REF_FRAME":"TEME","EPHEMERIS_TYPE":"0","ARG_OF_PERICENTER":"1.5628","OBJECT_ID":"2022-101AR","LAUNCH_DATE":"2022-08-19","NORAD_CAT_ID":"53566","FILE":"3583828","ELEMENT_SET_NO":"999","EPOCH":"2022-09-25T22:00:01.999584","ECCENTRICITY":"0.00038100","MEAN_MOTION":"15.73196249","MEAN_ELEMENT_THEORY":"SGP4","RA_OF_ASC_NODE":"330.9805","CLASSIFICATION_TYPE":"U","TLE_LINE1":"1 53566U 22101AR  22268.91668981 -.00063477  00000-0 -45111-3 0  9993","BSTAR":"-0.00045111000000","SEMIMAJOR_AXIS":"6727.906","APOAPSIS":"352.334","COUNTRY_CODE":"US","DECAY_DATE":null,"TLE_LINE2":"2 53566  53.2167 330.9805 0003810   1.5628 288.3523 15.73196249  1305","GP_ID":"213509693","MEAN_MOTION_DDOT":"0.0000000000000","OBJECT_NAME":"STARLINK-4576","REV_AT_EPOCH":"130","OBJECT_TYPE":"PAYLOAD","MEAN_ANOMALY":"288.3523"},{"RCS_SIZE":"LARGE","TIME_SYSTEM":"UTC","INCLINATION":"53.2169","MEAN_MOTION_DOT":"-0.00024892","PERIOD":"91.536","SITE":"AFETR","CENTER_NAME":"EARTH","ARG_OF_PERICENTER":"2.3259","OBJECT_ID":"2022-101AS","LAUNCH_DATE":"2022-08-19","FILE":"3583828","NORAD_CAT_ID":"53567","REF_FRAME":"TEME","PERIAPSIS":"347.370","EPHEMERIS_TYPE":"0","CLASSIFICATION_TYPE":"U","RA_OF_ASC_NODE":"330.9844","COUNTRY_CODE":"US","DECAY_DATE":null,"SEMIMAJOR_AXIS":"6728.041","TLE_LINE1":"1 53567U 22101AS  22268.91668981 -.00024892  00000-0 -17374-3 0  9992","BSTAR":"-0.00017374000000","APOAPSIS":"352.442","ECCENTRICITY":"0.00037690","EPOCH":"2022-09-25T22:00:01.999584","MEAN_MOTION":"15.73148924","ELEMENT_SET_NO":"999","MEAN_ELEMENT_THEORY":"SGP4","OBJECT_NAME":"STARLINK-4585","REV_AT_EPOCH":"130","OBJECT_TYPE":"PAYLOAD","MEAN_ANOMALY":"285.7803","MEAN_MOTION_DDOT":"0.0000000000000","TLE_LINE2":"2 53567  53.2169 330.9844 0003769   2.3259 285.7803 15.73148924  1302","GP_ID":"213508966"},{"TIME_SYSTEM":"UTC","MEAN_MOTION_DOT":"-0.00019733","INCLINATION":"53.2167","RCS_SIZE":"LARGE","SITE":"AFETR","CENTER_NAME":"EARTH","PERIOD":"91.535","FILE":"3583828","NORAD_CAT_ID":"53568","ARG_OF_PERICENTER":"1.8578","OBJECT_ID":"2022-101AT","LAUNCH_DATE":"2022-08-19","EPHEMERIS_TYPE":"0","REF_FRAME":"TEME","PERIAPSIS":"347.159","DECAY_DATE":null,"COUNTRY_CODE":"US","TLE_LINE1":"1 53568U 22101AT  22268.91668981 -.00019733  00000-0 -13656-3 0  9990","BSTAR":"-0.00013656000000","SEMIMAJOR_AXIS":"6727.968","APOAPSIS":"352.507","CLASSIFICATION_TYPE":"U","RA_OF_ASC_NODE":"330.9761","MEAN_ELEMENT_THEORY":"SGP4","EPOCH":"2022-09-25T22:00:01.999584","ECCENTRICITY":"0.00039740","MEAN_MOTION":"15.73174452","ELEMENT_SET_NO":"999","OBJECT_TYPE":"PAYLOAD","MEAN_ANOMALY":"289.8009","OBJECT_NAME":"STARLINK-4583","REV_AT_EPOCH":"130","MEAN_MOTION_DDOT":"0.0000000000000","GP_ID":"213509855","TLE_LINE2":"2 53568  53.2167 330.9761 0003974   1.8578 289.8009 15.73174452  1303"},{"OBJECT_TYPE":"PAYLOAD","MEAN_ANOMALY":"288.6703","OBJECT_NAME":"STARLINK-4582","REV_AT_EPOCH":"130","GP_ID":"213509543","TLE_LINE2":"2 53569  53.2167 330.9813 0003893   0.6278 288.6703 15.73204264  1309","MEAN_MOTION_DDOT":"0.0000000000000","SEMIMAJOR_AXIS":"6727.883","TLE_LINE1":"1 53569U 22101AU  22268.91668981 -.00066733  00000-0 -47448-3 0  9999","BSTAR":"-0.00047448000000","APOAPSIS":"352.367","COUNTRY_CODE":"US","DECAY_DATE":null,"RA_OF_ASC_NODE":"330.9813","CLASSIFICATION_TYPE":"U","MEAN_ELEMENT_THEORY":"SGP4","ELEMENT_SET_NO":"999","EPOCH":"2022-09-25T22:00:01.999584","ECCENTRICITY":"0.00038930","MEAN_MOTION":"15.73204264","FILE":"3583828","NORAD_CAT_ID":"53569","ARG_OF_PERICENTER":"0.6278","LAUNCH_DATE":"2022-08-19","OBJECT_ID":"2022-101AU","EPHEMERIS_TYPE":"0","REF_FRAME":"TEME","PERIAPSIS":"347.129","INCLINATION":"53.2167","MEAN_MOTION_DOT":"-0.00066733","TIME_SYSTEM":"UTC","RCS_SIZE":"LARGE","CENTER_NAME":"EARTH","SITE":"AFETR","PERIOD":"91.533"},{"REF_FRAME":"TEME","PERIAPSIS":"347.150","EPHEMERIS_TYPE":"0","LAUNCH_DATE":"2022-08-19","OBJECT_ID":"2022-101AV","ARG_OF_PERICENTER":"3.3624","FILE":"3583828","NORAD_CAT_ID":"53570","PERIOD":"91.532","SITE":"AFETR","CENTER_NAME":"EARTH","RCS_SIZE":"LARGE","TIME_SYSTEM":"UTC","INCLINATION":"53.2168","MEAN_MOTION_DOT":"-0.00087736","MEAN_MOTION_DDOT":"0.0000000000000","TLE_LINE2":"2 53570  53.2168 330.9779 0003825   3.3624 287.6881 15.73212771  1301","GP_ID":"213509934","OBJECT_NAME":"STARLINK-4550","REV_AT_EPOCH":"130","MEAN_ANOMALY":"287.6881","OBJECT_TYPE":"PAYLOAD","MEAN_MOTION":"15.73212771","EPOCH":"2022-09-25T22:00:01.999584","ECCENTRICITY":"0.00038250","ELEMENT_SET_NO":"999","MEAN_ELEMENT_THEORY":"SGP4","CLASSIFICATION_TYPE":"U","RA_OF_ASC_NODE":"330.9779","COUNTRY_CODE":"US","DECAY_DATE":null,"APOAPSIS":"352.297","TLE_LINE1":"1 53570U 22101AV  22268.91668981 -.00087736  00000-0 -62656-3 0  9995","BSTAR":"-0.00062656000000","SEMIMAJOR_AXIS":"6727.859"},{"ARG_OF_PERICENTER":"2.5398","LAUNCH_DATE":"2022-08-19","OBJECT_ID":"2022-101AW","NORAD_CAT_ID":"53571","FILE":"3583828","PERIAPSIS":"347.325","REF_FRAME":"TEME","EPHEMERIS_TYPE":"0","RCS_SIZE":"LARGE","MEAN_MOTION_DOT":"-0.00023320","INCLINATION":"53.2168","TIME_SYSTEM":"UTC","PERIOD":"91.535","CENTER_NAME":"EARTH","SITE":"AFETR","REV_AT_EPOCH":"130","OBJECT_NAME":"STARLINK-4584","OBJECT_TYPE":"PAYLOAD","MEAN_ANOMALY":"287.9151","GP_ID":"213509383","TLE_LINE2":"2 53571  53.2168 330.9780 0003752   2.5398 287.9151 15.73168554  1304","MEAN_MOTION_DDOT":"0.0000000000000","RA_OF_ASC_NODE":"330.9780","CLASSIFICATION_TYPE":"U","BSTAR":"-0.00016232000000","TLE_LINE1":"1 53571U 22101AW  22268.91668981 -.00023320  00000-0 -16232-3 0  9994","SEMIMAJOR_AXIS":"6727.985","APOAPSIS":"352.374","COUNTRY_CODE":"US","DECAY_DATE":null,"ELEMENT_SET_NO":"999","ECCENTRICITY":"0.00037520","EPOCH":"2022-09-25T22:00:01.999584","MEAN_MOTION":"15.73168554","MEAN_ELEMENT_THEORY":"SGP4"}];
